IRIDIUM 173             
1 43925U 19002D   26095.76697733  .00000134  00000+0  40768-4 0  9991
2 43925  86.4017  23.8210 0002104  86.7917 273.3519 14.34218361378575
IRIDIUM 169             
1 43926U 19002E   26095.63601762  .00000511  00000+0  16060-3 0  9991
2 43926  86.4214  55.5119 0002159 104.8790 255.2648 14.38610296379790
IRIDIUM 172             
1 43927U 19002F   26095.83040323  .00000109  00000+0  31969-4 0  9993
2 43927  86.4012  23.8021 0002128  81.9018 278.2420 14.34218448378590
IRIDIUM 175             
1 43928U 19002G   26095.70233630  .00000475  00000+0  13442-3 0  9996
2 43928  86.4515 320.8407 0005326  97.0312 263.1495 14.43584323388522
IRIDIUM 171             
1 43929U 19002H   26095.81137433  .00000171  00000+0  54053-4 0  9990
2 43929  86.4023  24.1085 0002368  88.8556 271.2911 14.34217441378586
IRIDIUM 170             
1 43930U 19002J   26095.84754212  .00001424  00000+0  22185-3 0  9997
2 43930  86.6134  23.7766 0002360  81.6572 278.4913 14.72257211388612
IRIDIUM 167             
1 43931U 19002K   26095.87480314  .00000376  00000+0  12714-3 0  9992
2 43931  86.4014  23.8053 0002444  92.0138 268.1338 14.34217221378593
IRIDIUM 181             
1 56726U 23068S   26095.72656836  .00000298  00000+0  82563-4 0  9996
2 56726  86.4449  87.0837 0002445  81.6192 278.5286 14.43309229151987
IRIDIUM 177             
1 56727U 23068T   26095.71847036  .00001419  00000+0  18325-3 0  9990
2 56727  86.2017   3.2019 0002141  87.8925 272.2541 14.80239058155649
IRIDIUM 174             
1 56728U 23068U   26095.76722381  .00001583  00000+0  24713-3 0  9991
2 56728  86.6142  23.9502 0002182  81.3087 278.8378 14.72246476155364
IRIDIUM 178             
1 56729U 23068V   26095.36955165  .00000912  00000+0  11653-3 0  9990
2 56729  86.6526  55.7786 0002849  86.0252 274.1295 14.80234710155593
IRIDIUM 179             
1 56730U 23068W   26095.83738249  .00001829  00000+0  23724-3 0  9996
2 56730  86.6757  64.3517 0002852  95.2350 264.9198 14.80243229155666
