[{"OBJECT_NAME":"IRIDIUM 173","OBJECT_ID":"2019-002D","EPOCH":"2026-04-05T18:24:26.841312","MEAN_MOTION":14.34218361,"ECCENTRICITY":0.0002104,"INCLINATION":86.4017,"RA_OF_ASC_NODE":23.821,"ARG_OF_PERICENTER":86.7917,"MEAN_ANOMALY":273.3519,"EPHEMERIS_TYPE":0,"CLASSIFICATION_TYPE":"U","NORAD_CAT_ID":43925,"ELEMENT_SET_NO":999,"REV_AT_EPOCH":37857,"BSTAR":4.0768e-5,"MEAN_MOTION_DOT":1.34e-6,"MEAN_MOTION_DDOT":0},{"OBJECT_NAME":"IRIDIUM 169","OBJECT_ID":"2019-002E","EPOCH":"2026-04-05T15:15:51.922368","MEAN_MOTION":14.38610296,"ECCENTRICITY":0.0002159,"INCLINATION":86.4214,"RA_OF_ASC_NODE":55.5119,"ARG_OF_PERICENTER":104.879,"MEAN_ANOMALY":255.2648,"EPHEMERIS_TYPE":0,"CLASSIFICATION_TYPE":"U","NORAD_CAT_ID":43926,"ELEMENT_SET_NO":999,"REV_AT_EPOCH":37979,"BSTAR":0.0001606,"MEAN_MOTION_DOT":5.11e-6,"MEAN_MOTION_DDOT":0},{"OBJECT_NAME":"IRIDIUM 172","OBJECT_ID":"2019-002F","EPOCH":"2026-04-05T19:55:46.839072","MEAN_MOTION":14.34218448,"ECCENTRICITY":0.0002128,"INCLINATION":86.4012,"RA_OF_ASC_NODE":23.8021,"ARG_OF_PERICENTER":81.9018,"MEAN_ANOMALY":278.242,"EPHEMERIS_TYPE":0,"CLASSIFICATION_TYPE":"U","NORAD_CAT_ID":43927,"ELEMENT_SET_NO":999,"REV_AT_EPOCH":37859,"BSTAR":3.1969e-5,"MEAN_MOTION_DOT":1.09e-6,"MEAN_MOTION_DDOT":0},{"OBJECT_NAME":"IRIDIUM 175","OBJECT_ID":"2019-002G","EPOCH":"2026-04-05T16:51:21.856320","MEAN_MOTION":14.43584323,"ECCENTRICITY":0.0005326,"INCLINATION":86.4515,"RA_OF_ASC_NODE":320.8407,"ARG_OF_PERICENTER":97.0312,"MEAN_ANOMALY":263.1495,"EPHEMERIS_TYPE":0,"CLASSIFICATION_TYPE":"U","NORAD_CAT_ID":43928,"ELEMENT_SET_NO":999,"REV_AT_EPOCH":38852,"BSTAR":0.00013442,"MEAN_MOTION_DOT":4.75e-6,"MEAN_MOTION_DDOT":0},{"OBJECT_NAME":"IRIDIUM 171","OBJECT_ID":"2019-002H","EPOCH":"2026-04-05T19:28:22.742112","MEAN_MOTION":14.34217441,"ECCENTRICITY":0.0002368,"INCLINATION":86.4023,"RA_OF_ASC_NODE":24.1085,"ARG_OF_PERICENTER":88.8556,"MEAN_ANOMALY":271.2911,"EPHEMERIS_TYPE":0,"CLASSIFICATION_TYPE":"U","NORAD_CAT_ID":43929,"ELEMENT_SET_NO":999,"REV_AT_EPOCH":37858,"BSTAR":5.4053e-5,"MEAN_MOTION_DOT":1.71e-6,"MEAN_MOTION_DDOT":0},{"OBJECT_NAME":"IRIDIUM 170","OBJECT_ID":"2019-002J","EPOCH":"2026-04-05T20:20:27.639168","MEAN_MOTION":14.72257211,"ECCENTRICITY":0.000236,"INCLINATION":86.6134,"RA_OF_ASC_NODE":23.7766,"ARG_OF_PERICENTER":81.6572,"MEAN_ANOMALY":278.4913,"EPHEMERIS_TYPE":0,"CLASSIFICATION_TYPE":"U","NORAD_CAT_ID":43930,"ELEMENT_SET_NO":999,"REV_AT_EPOCH":38861,"BSTAR":0.00022185,"MEAN_MOTION_DOT":1.424e-5,"MEAN_MOTION_DDOT":0},{"OBJECT_NAME":"IRIDIUM 167","OBJECT_ID":"2019-002K","EPOCH":"2026-04-05T20:59:42.991296","MEAN_MOTION":14.34217221,"ECCENTRICITY":0.0002444,"INCLINATION":86.4014,"RA_OF_ASC_NODE":23.8053,"ARG_OF_PERICENTER":92.0138,"MEAN_ANOMALY":268.1338,"EPHEMERIS_TYPE":0,"CLASSIFICATION_TYPE":"U","NORAD_CAT_ID":43931,"ELEMENT_SET_NO":999,"REV_AT_EPOCH":37859,"BSTAR":0.00012714,"MEAN_MOTION_DOT":3.76e-6,"MEAN_MOTION_DDOT":0},{"OBJECT_NAME":"IRIDIUM 181","OBJECT_ID":"2023-068S","EPOCH":"2026-04-05T17:26:15.506304","MEAN_MOTION":14.43309229,"ECCENTRICITY":0.0002445,"INCLINATION":86.4449,"RA_OF_ASC_NODE":87.0837,"ARG_OF_PERICENTER":81.6192,"MEAN_ANOMALY":278.5286,"EPHEMERIS_TYPE":0,"CLASSIFICATION_TYPE":"U","NORAD_CAT_ID":56726,"ELEMENT_SET_NO":999,"REV_AT_EPOCH":15198,"BSTAR":8.2563e-5,"MEAN_MOTION_DOT":2.98e-6,"MEAN_MOTION_DDOT":0},{"OBJECT_NAME":"IRIDIUM 177","OBJECT_ID":"2023-068T","EPOCH":"2026-04-05T17:14:35.839104","MEAN_MOTION":14.80239058,"ECCENTRICITY":0.0002141,"INCLINATION":86.2017,"RA_OF_ASC_NODE":3.2019,"ARG_OF_PERICENTER":87.8925,"MEAN_ANOMALY":272.2541,"EPHEMERIS_TYPE":0,"CLASSIFICATION_TYPE":"U","NORAD_CAT_ID":56727,"ELEMENT_SET_NO":999,"REV_AT_EPOCH":15564,"BSTAR":0.00018325,"MEAN_MOTION_DOT":1.419e-5,"MEAN_MOTION_DDOT":0},{"OBJECT_NAME":"IRIDIUM 174","OBJECT_ID":"2023-068U","EPOCH":"2026-04-05T18:24:48.137184","MEAN_MOTION":14.72246476,"ECCENTRICITY":0.0002182,"INCLINATION":86.6142,"RA_OF_ASC_NODE":23.9502,"ARG_OF_PERICENTER":81.3087,"MEAN_ANOMALY":278.8378,"EPHEMERIS_TYPE":0,"CLASSIFICATION_TYPE":"U","NORAD_CAT_ID":56728,"ELEMENT_SET_NO":999,"REV_AT_EPOCH":15536,"BSTAR":0.00024713,"MEAN_MOTION_DOT":1.583e-5,"MEAN_MOTION_DDOT":0},{"OBJECT_NAME":"IRIDIUM 178","OBJECT_ID":"2023-068V","EPOCH":"2026-04-05T08:52:09.262560","MEAN_MOTION":14.8023471,"ECCENTRICITY":0.00028496,"INCLINATION":86.6526,"RA_OF_ASC_NODE":55.7786,"ARG_OF_PERICENTER":86.0252,"MEAN_ANOMALY":274.1295,"EPHEMERIS_TYPE":0,"CLASSIFICATION_TYPE":"U","NORAD_CAT_ID":56729,"ELEMENT_SET_NO":999,"REV_AT_EPOCH":15559,"BSTAR":0.00011653109,"MEAN_MOTION_DOT":9.12e-6,"MEAN_MOTION_DDOT":0},{"OBJECT_NAME":"IRIDIUM 179","OBJECT_ID":"2023-068W","EPOCH":"2026-04-05T20:05:49.847136","MEAN_MOTION":14.80243229,"ECCENTRICITY":0.0002852,"INCLINATION":86.6757,"RA_OF_ASC_NODE":64.3517,"ARG_OF_PERICENTER":95.235,"MEAN_ANOMALY":264.9198,"EPHEMERIS_TYPE":0,"CLASSIFICATION_TYPE":"U","NORAD_CAT_ID":56730,"ELEMENT_SET_NO":999,"REV_AT_EPOCH":15566,"BSTAR":0.00023724,"MEAN_MOTION_DOT":1.829e-5,"MEAN_MOTION_DDOT":0}]
